{
  "type": "FeatureCollection",
  "features": [
    {
      "type": "Feature",
      "properties": {
        "norad_id": 36083,
        "name": "IRIDIUM 33 DEB",
        "group": "iridium-33-debris",
        "lat": -78.21993439817105,
        "lon": 14.794896451447297,
        "alt_km": 748.8301003933166,
        "timestamp": "2025-12-16T05:49:09.599226+00:00",
        "meta_object_name": "IRIDIUM 33 DEB",
        "meta_object_id": "1997-051VQ",
        "meta_epoch": "2025-12-06T21:32:26.892672",
        "meta_mean_motion": 14.43175138,
        "meta_eccentricity": 0.00247889,
        "meta_inclination": 86.3442,
        "meta_ra_of_asc_node": 36.6683,
        "meta_arg_of_pericenter": 243.3344,
        "meta_mean_anomaly": 116.5319,
        "meta_ephemeris_type": 0,
        "meta_classification_type": "U",
        "meta_norad_cat_id": 36083,
        "meta_element_set_no": 999,
        "meta_rev_at_epoch": 85365,
        "meta_bstar": 0.00098432537,
        "meta_mean_motion_dot": 3.337e-05,
        "meta_mean_motion_ddot": 0,
        "tle_line1": "1 36083U 97051VQ  25340.89753348  .00003337  00000+0  98433-3 0  9998",
        "tle_line2": "2 36083  86.3442  36.6683 0024788 243.3344 116.5319 14.43175138853653"
      },
      "geometry": {
        "type": "Point",
        "coordinates": [
          14.794896451447297,
          -78.21993439817105
        ]
      }
    },
    {
      "type": "Feature",
      "properties": {
        "norad_id": 36390,
        "name": "IRIDIUM 33 DEB",
        "group": "iridium-33-debris",
        "lat": 57.620819643384706,
        "lon": 111.91661623730357,
        "alt_km": 624.9627053631912,
        "timestamp": "2025-12-16T05:49:09.599243+00:00",
        "meta_object_name": "IRIDIUM 33 DEB",
        "meta_object_id": "1997-051VU",
        "meta_epoch": "2025-12-10T04:13:18.491808",
        "meta_mean_motion": 14.73548967,
        "meta_eccentricity": 0.00303441,
        "meta_inclination": 86.2912,
        "meta_ra_of_asc_node": 300.5678,
        "meta_arg_of_pericenter": 170.4809,
        "meta_mean_anomaly": 189.6991,
        "meta_ephemeris_type": 0,
        "meta_classification_type": "U",
        "meta_norad_cat_id": 36390,
        "meta_element_set_no": 999,
        "meta_rev_at_epoch": 66224,
        "meta_bstar": 0.0016206136,
        "meta_mean_motion_dot": 0.00010646,
        "meta_mean_motion_ddot": 0,
        "tle_line1": "1 36390U 97051VU  25344.17590847  .00010646  00000+0  16206-2 0  9995",
        "tle_line2": "2 36390  86.2912 300.5678 0030344 170.4809 189.6991 14.73548967662240"
      },
      "geometry": {
        "type": "Point",
        "coordinates": [
          111.91661623730357,
          57.620819643384706
        ]
      }
    },
    {
      "type": "Feature",
      "properties": {
        "norad_id": 36483,
        "name": "IRIDIUM 33 DEB",
        "group": "iridium-33-debris",
        "lat": 62.54803981172685,
        "lon": -136.00983729010832,
        "alt_km": 725.2906503543272,
        "timestamp": "2025-12-16T05:49:09.599260+00:00",
        "meta_object_name": "IRIDIUM 33 DEB",
        "meta_object_id": "1997-051VZ",
        "meta_epoch": "2025-12-13T10:50:21.003936",
        "meta_mean_motion": 14.45815478,
        "meta_eccentricity": 0.00112504,
        "meta_inclination": 86.3797,
        "meta_ra_of_asc_node": 52.1844,
        "meta_arg_of_pericenter": 123.854,
        "meta_mean_anomaly": 236.3734,
        "meta_ephemeris_type": 0,
        "meta_classification_type": "U",
        "meta_norad_cat_id": 36483,
        "meta_element_set_no": 999,
        "meta_rev_at_epoch": 65156,
        "meta_bstar": 0.00081590403,
        "meta_mean_motion_dot": 2.915e-05,
        "meta_mean_motion_ddot": 0,
        "tle_line1": "1 36483U 97051VZ  25347.45163199  .00002915  00000+0  81590-3 0  9997",
        "tle_line2": "2 36483  86.3797  52.1844 0011250 123.8540 236.3734 14.45815478651560"
      },
      "geometry": {
        "type": "Point",
        "coordinates": [
          -136.00983729010832,
          62.54803981172685
        ]
      }
    },
    {
      "type": "Feature",
      "properties": {
        "norad_id": 36490,
        "name": "IRIDIUM 33 DEB",
        "group": "iridium-33-debris",
        "lat": 36.873257792870696,
        "lon": 11.616201698372095,
        "alt_km": 635.619254236477,
        "timestamp": "2025-12-16T05:49:09.599270+00:00",
        "meta_object_name": "IRIDIUM 33 DEB",
        "meta_object_id": "1997-051WG",
        "meta_epoch": "2025-12-15T11:45:28.095264",
        "meta_mean_motion": 14.76257197,
        "meta_eccentricity": 0.00054321,
        "meta_inclination": 86.3659,
        "meta_ra_of_asc_node": 9.2231,
        "meta_arg_of_pericenter": 77.7006,
        "meta_mean_anomaly": 282.4821,
        "meta_ephemeris_type": 0,
        "meta_classification_type": "U",
        "meta_norad_cat_id": 36490,
        "meta_element_set_no": 999,
        "meta_rev_at_epoch": 86525,
        "meta_bstar": 0.00096784251,
        "meta_mean_motion_dot": 6.728e-05,
        "meta_mean_motion_ddot": 0,
        "tle_line1": "1 36490U 97051WG  25349.48990851  .00006728  00000+0  96784-3 0  9990",
        "tle_line2": "2 36490  86.3659   9.2231 0005432  77.7006 282.4821 14.76257197865251"
      },
      "geometry": {
        "type": "Point",
        "coordinates": [
          11.616201698372095,
          36.873257792870696
        ]
      }
    },
    {
      "type": "Feature",
      "properties": {
        "norad_id": 36493,
        "name": "IRIDIUM 33 DEB",
        "group": "iridium-33-debris",
        "lat": -1.6351013708127795,
        "lon": -169.77137190257147,
        "alt_km": 686.3566140051698,
        "timestamp": "2025-12-16T05:49:09.599280+00:00",
        "meta_object_name": "IRIDIUM 33 DEB",
        "meta_object_id": "1997-051WK",
        "meta_epoch": "2025-12-15T19:09:34.038432",
        "meta_mean_motion": 14.65273327,
        "meta_eccentricity": 0.00098526,
        "meta_inclination": 86.358,
        "meta_ra_of_asc_node": 10.3217,
        "meta_arg_of_pericenter": 354.0112,
        "meta_mean_anomaly": 6.0982,
        "meta_ephemeris_type": 0,
        "meta_classification_type": "U",
        "meta_norad_cat_id": 36493,
        "meta_element_set_no": 999,
        "meta_rev_at_epoch": 74563,
        "meta_bstar": 0.00077312404,
        "meta_mean_motion_dot": 4.191e-05,
        "meta_mean_motion_ddot": 0,
        "tle_line1": "1 36493U 97051WK  25349.79831063  .00004191  00000+0  77312-3 0  9994",
        "tle_line2": "2 36493  86.3580  10.3217 0009852 354.0112   6.0982 14.65273327745631"
      },
      "geometry": {
        "type": "Point",
        "coordinates": [
          -169.77137190257147,
          -1.6351013708127795
        ]
      }
    },
    {
      "type": "Feature",
      "properties": {
        "norad_id": 37548,
        "name": "IRIDIUM 33 DEB",
        "group": "iridium-33-debris",
        "lat": -13.313079731984375,
        "lon": -137.2905833684359,
        "alt_km": 708.3291825458027,
        "timestamp": "2025-12-16T05:49:09.599290+00:00",
        "meta_object_name": "IRIDIUM 33 DEB",
        "meta_object_id": "1997-051XH",
        "meta_epoch": "2025-12-15T20:39:30.861504",
        "meta_mean_motion": 14.51326297,
        "meta_eccentricity": 0.00258157,
        "meta_inclination": 86.3522,
        "meta_ra_of_asc_node": 42.0105,
        "meta_arg_of_pericenter": 178.4192,
        "meta_mean_anomaly": 181.71,
        "meta_ephemeris_type": 0,
        "meta_classification_type": "U",
        "meta_norad_cat_id": 37548,
        "meta_element_set_no": 999,
        "meta_rev_at_epoch": 65577,
        "meta_bstar": 0.00067405053,
        "meta_mean_motion_dot": 2.715e-05,
        "meta_mean_motion_ddot": 0,
        "tle_line1": "1 37548U 97051XH  25349.86077386  .00002715  00000+0  67405-3 0  9996",
        "tle_line2": "2 37548  86.3522  42.0105 0025815 178.4192 181.7100 14.51326297655778"
      },
      "geometry": {
        "type": "Point",
        "coordinates": [
          -137.2905833684359,
          -13.313079731984375
        ]
      }
    },
    {
      "type": "Feature",
      "properties": {
        "norad_id": 37550,
        "name": "IRIDIUM 33 DEB",
        "group": "iridium-33-debris",
        "lat": 69.09126090081662,
        "lon": 31.866115108351533,
        "alt_km": 659.9157867108352,
        "timestamp": "2025-12-16T05:49:09.599301+00:00",
        "meta_object_name": "IRIDIUM 33 DEB",
        "meta_object_id": "1997-051XK",
        "meta_epoch": "2025-12-15T19:41:01.268448",
        "meta_mean_motion": 14.67253244,
        "meta_eccentricity": 0.0005615,
        "meta_inclination": 86.3781,
        "meta_ra_of_asc_node": 22.5097,
        "meta_arg_of_pericenter": 104.1543,
        "meta_mean_anomaly": 256.0296,
        "meta_ephemeris_type": 0,
        "meta_classification_type": "U",
        "meta_norad_cat_id": 37550,
        "meta_element_set_no": 999,
        "meta_rev_at_epoch": 86378,
        "meta_bstar": 0.00071396761,
        "meta_mean_motion_dot": 4.045e-05,
        "meta_mean_motion_ddot": 0,
        "tle_line1": "1 37550U 97051XK  25349.82015357  .00004045  00000+0  71397-3 0  9998",
        "tle_line2": "2 37550  86.3781  22.5097 0005615 104.1543 256.0296 14.67253244863785"
      },
      "geometry": {
        "type": "Point",
        "coordinates": [
          31.866115108351533,
          69.09126090081662
        ]
      }
    }
  ]
}